PROBA-1                 
1 26958U 01049B   26185.59330198  .00002502  00000+0  16323-3 0  9990
2 26958  97.9592 194.7343 0056322  64.7601 295.9449 15.07571683346240
CUTE-1 (CO-55)          
1 27844U 03031E   26185.45862507  .00000342  00000+0  16664-3 0  9995
2 27844  98.6738 193.8003 0010505 130.4916 229.7180 14.24346609194133
CUBESAT XI-IV (CO-57)   
1 27848U 03031J   26185.45575708  .00000289  00000+0  14607-3 0  9998
2 27848  98.6769 193.4963 0010079 147.8071 212.3725 14.23630269193838
APRIZESAT 4             
1 35684U 09041D   26185.45201468  .00000858  00000+0  10885-3 0  9997
2 35684  98.1408 261.1164 0041908 265.4150  94.2275 14.83902871913920
APRIZESAT 3             
1 35686U 09041F   26185.15175865  .00001384  00000+0  12380-3 0  9994
2 35686  98.2080 339.1904 0061751  12.1152 348.1536 14.96286521918910
PROBA-2                 
1 36037U 09059B   26185.50310942  .00000307  00000+0  82020-4 0  9993
2 36037  98.2455   8.6161 0012319 223.2526 136.7704 14.54870665884042
APRIZESAT 5             
1 37792U 11044E   26184.76166404  .00001181  00000+0  15635-3 0  9996
2 37792  98.2450 118.2722 0051089 310.4764  49.2000 14.81111495801244
APRIZESAT 6             
1 37793U 11044F   26185.00864773  .00000993  00000+0  14684-3 0  9992
2 37793  98.2349  95.8509 0043911  33.6747 347.0397 14.76943409799634
PROBA-V                 
1 39159U 13021A   26185.33889497  .00000138  00000+0  78452-4 0  9998
2 39159  98.3596 163.0996 0005423  84.3943 275.7855 14.23601591683556
APRIZESAT 7             
1 39416U 13066A   26185.59596765  .00001559  00000+0  15905-3 0  9995
2 39416  97.7716 138.5665 0036513 151.3854 208.9379 14.91603854683827
APRIZESAT 8             
1 39425U 13066K   26185.29294061  .00001009  00000+0  11504-3 0  9997
2 39425  97.8225 132.5230 0044684 228.3816 131.3569 14.87683163682214
BUGSAT-1 (TITA)         
1 40014U 14033E   26185.59717609  .00011316  00000+0  58981-3 0  9991
2 40014  98.0433 279.1668 0028986 120.4187 239.9914 15.15794758658472
SAUDISAT 4              
1 40016U 14033G   26185.36424346  .00000704  00000+0  99303-4 0  9994
2 40016  97.7605 330.9067 0045180  19.3039 340.9871 14.79566664648619
APRIZESAT 9             
1 40018U 14033J   26185.65117246  .00001131  00000+0  17276-3 0  9999
2 40018  97.9083 318.4249 0066973 143.2428 217.3401 14.74242894646130
APRIZESAT 10            
1 40019U 14033K   26184.31715138  .00000649  00000+0  10961-3 0  9993
2 40019  97.9670 310.9186 0077871 221.5254 138.0021 14.70899392644622
TECHDEMOSAT-1 (TDS-1)   
1 40076U 14037H   26185.21663992  .00010751  00000+0  60328-3 0  9997
2 40076  98.3818 179.1203 0005846 194.6994 165.4066 15.13554427650808
TECHNOSAT               
1 42829U 17042E   26184.87093637  .00003285  00000+0  23451-3 0  9998
2 42829  97.4295 341.8960 0018427  40.8087 319.4516 15.05054378489214
FLYING LAPTOP           
1 42831U 17042G   26185.64919469  .00002857  00000+0  22589-3 0  9992
2 42831  97.4771 340.5188 0019928  66.0616 294.2694 15.01257840489075
HAWK-A                  
1 43765U 18099H   26185.41117586  .00009564  00000+0  38161-3 0  9992
2 43765  97.3899 237.4238 0033679 222.4717 137.3914 15.24854729415728
HAWK-B                  
1 43794U 18099AN  26185.58471714  .00010696  00000+0  45148-3 0  9999
2 43794  97.3945 236.9736 0030528 240.5702 119.2487 15.23026356415689
HAWK-C                  
1 43799U 18099AT  26185.08666369  .00010441  00000+0  37223-3 0  9994
2 43799  97.3875 238.0993 0039273 223.6179 136.1955 15.28347981416493
SALSAT                  
1 46495U 20068K   26185.47776598  .00013616  00000+0  47010-3 0  9990
2 46495  97.8855 189.5980 0008208 234.4468 125.6006 15.30057656318001
HAWK-2C                 
1 47502U 21006CT  26185.56041259  .00011645  00000+0  34600-3 0  9993
2 47502  97.2263 229.5246 0008329 131.3756 228.8205 15.34887498302163
HAWK-2A                 
1 47505U 21006CW  26185.36715911  .00008568  00000+0  25524-3 0  9992
2 47505  97.2307 230.0233 0007742 134.7565 225.4310 15.34893809302131
HAWK-2B                 
1 47508U 21006CZ  26185.10081093  .00009362  00000+0  27764-3 0  9995
2 47508  97.2176 228.0668 0008303 133.9781 226.2149 15.35005144302094
HAWK-3B                 
1 48931U 21059BE  26185.27527347  .00060391  00000+0  48058-3 0  9997
2 48931  97.6640  23.6166 0003519 241.8172 118.2734 15.71026933280537
HAWK-3C                 
1 48948U 21059BX  26184.82908216  .00046359  00000+0  37060-3 0  9992
2 48948  97.6758  28.8415 0003695 245.7637 114.3239 15.70972874280465
HAWK-3A                 
1 48957U 21059CG  26185.52961677  .00079021  00000+0  62601-3 0  9991
2 48957  97.6706  26.8019 0003729 246.0669 114.0203 15.71068404280579
HAWK-5C                 
1 52754U 22057Y   26185.39146620  .00024739  00000+0  41193-3 0  9997
2 52754  97.6616 346.1766 0003815  26.0316 334.1127 15.52014240229017
HAWK-5B                 
1 52756U 22057AA  26185.39128434  .00024335  00000+0  40517-3 0  9993
2 52756  97.6631 344.5276 0004384  15.2824 344.8559 15.52017151229011
